CCSDS_OMM_VERS = 2.0
CREATION_DATE  = 
ORIGINATOR     = 

OBJECT_NAME    = CORAL
OBJECT_ID      = 1998-067YA
CENTER_NAME    = EARTH
REF_FRAME      = TEME
TIME_SYSTEM    = UTC
MEAN_ELEMENT_THEORY = SGP/SGP4

EPOCH          = 2026-04-05T14:22:56.670528
MEAN_MOTION    = 15.59334849
ECCENTRICITY   = .00137093
INCLINATION    = 51.6286
RA_OF_ASC_NODE = 296.8523
ARG_OF_PERICENTER = 276.0904
MEAN_ANOMALY   = 83.8527

EPHEMERIS_TYPE = 0
CLASSIFICATION_TYPE = U
NORAD_CAT_ID   = 67684
ELEMENT_SET_NO = 999
REV_AT_EPOCH   = 898
BSTAR          = .12635585E-2
MEAN_MOTION_DOT = .102754E-2
MEAN_MOTION_DDOT = 0

CCSDS_OMM_VERS = 2.0
CREATION_DATE  = 
ORIGINATOR     = 

OBJECT_NAME    = GXIBA-1
OBJECT_ID      = 1998-067YB
CENTER_NAME    = EARTH
REF_FRAME      = TEME
TIME_SYSTEM    = UTC
MEAN_ELEMENT_THEORY = SGP/SGP4

EPOCH          = 2026-04-05T13:10:16.974048
MEAN_MOTION    = 15.54864526
ECCENTRICITY   = .00125806
INCLINATION    = 51.6303
RA_OF_ASC_NODE = 298.0165
ARG_OF_PERICENTER = 282.5760
MEAN_ANOMALY   = 77.3823

EPHEMERIS_TYPE = 0
CLASSIFICATION_TYPE = U
NORAD_CAT_ID   = 67685
ELEMENT_SET_NO = 999
REV_AT_EPOCH   = 896
BSTAR          = .76761918E-3
MEAN_MOTION_DOT = .52226E-3
MEAN_MOTION_DDOT = 0

CCSDS_OMM_VERS = 2.0
CREATION_DATE  = 
ORIGINATOR     = 

OBJECT_NAME    = UITMSAT-2
OBJECT_ID      = 1998-067YC
CENTER_NAME    = EARTH
REF_FRAME      = TEME
TIME_SYSTEM    = UTC
MEAN_ELEMENT_THEORY = SGP/SGP4

EPOCH          = 2026-04-05T14:14:11.419872
MEAN_MOTION    = 15.56037325
ECCENTRICITY   = .00096021
INCLINATION    = 51.6300
RA_OF_ASC_NODE = 297.5650
ARG_OF_PERICENTER = 257.2725
MEAN_ANOMALY   = 102.7193

EPHEMERIS_TYPE = 0
CLASSIFICATION_TYPE = U
NORAD_CAT_ID   = 67686
ELEMENT_SET_NO = 999
REV_AT_EPOCH   = 897
BSTAR          = .91269099E-3
MEAN_MOTION_DOT = .64965E-3
MEAN_MOTION_DDOT = 0

CCSDS_OMM_VERS = 2.0
CREATION_DATE  = 
ORIGINATOR     = 

OBJECT_NAME    = HMU-SAT2
OBJECT_ID      = 1998-067YD
CENTER_NAME    = EARTH
REF_FRAME      = TEME
TIME_SYSTEM    = UTC
MEAN_ELEMENT_THEORY = SGP/SGP4

EPOCH          = 2026-04-04T18:48:25.578432
MEAN_MOTION    = 15.54504888
ECCENTRICITY   = .0009085
INCLINATION    = 51.6310
RA_OF_ASC_NODE = 301.9093
ARG_OF_PERICENTER = 256.2021
MEAN_ANOMALY   = 103.7959

EPHEMERIS_TYPE = 0
CLASSIFICATION_TYPE = U
NORAD_CAT_ID   = 67687
ELEMENT_SET_NO = 999
REV_AT_EPOCH   = 876
BSTAR          = .80536E-3
MEAN_MOTION_DOT = .54021E-3
MEAN_MOTION_DDOT = 0

CCSDS_OMM_VERS = 2.0
CREATION_DATE  = 
ORIGINATOR     = 

OBJECT_NAME    = LEOPARD
OBJECT_ID      = 1998-067YE
CENTER_NAME    = EARTH
REF_FRAME      = TEME
TIME_SYSTEM    = UTC
MEAN_ELEMENT_THEORY = SGP/SGP4

EPOCH          = 2026-04-05T14:27:14.971968
MEAN_MOTION    = 15.55505012
ECCENTRICITY   = .00093086
INCLINATION    = 51.6301
RA_OF_ASC_NODE = 297.6258
ARG_OF_PERICENTER = 257.8791
MEAN_ANOMALY   = 102.1158

EPHEMERIS_TYPE = 0
CLASSIFICATION_TYPE = U
NORAD_CAT_ID   = 67688
ELEMENT_SET_NO = 999
REV_AT_EPOCH   = 889
BSTAR          = .83628795E-3
MEAN_MOTION_DOT = .58264E-3
MEAN_MOTION_DDOT = 0

CCSDS_OMM_VERS = 2.0
CREATION_DATE  = 
ORIGINATOR     = 

OBJECT_NAME    = CREW DRAGON 12
OBJECT_ID      = 2026-031A
CENTER_NAME    = EARTH
REF_FRAME      = TEME
TIME_SYSTEM    = UTC
MEAN_ELEMENT_THEORY = SGP/SGP4

EPOCH          = 2026-04-05T13:16:46.804800
MEAN_MOTION    = 15.48786980
ECCENTRICITY   = .00063514
INCLINATION    = 51.6328
RA_OF_ASC_NODE = 299.5432
ARG_OF_PERICENTER = 274.8255
MEAN_ANOMALY   = 85.2008

EPHEMERIS_TYPE = 0
CLASSIFICATION_TYPE = U
NORAD_CAT_ID   = 67796
ELEMENT_SET_NO = 999
REV_AT_EPOCH   = 56047
BSTAR          = .16419769E-3
MEAN_MOTION_DOT = .8543E-4
MEAN_MOTION_DDOT = 0

CCSDS_OMM_VERS = 2.0
CREATION_DATE  = 
ORIGINATOR     = 

OBJECT_NAME    = PROGRESS-MS 33
OBJECT_ID      = 2026-058A
CENTER_NAME    = EARTH
REF_FRAME      = TEME
TIME_SYSTEM    = UTC
MEAN_ELEMENT_THEORY = SGP/SGP4

EPOCH          = 2026-04-05T13:16:46.804800
MEAN_MOTION    = 15.48786980
ECCENTRICITY   = .00063514
INCLINATION    = 51.6328
RA_OF_ASC_NODE = 299.5432
ARG_OF_PERICENTER = 274.8255
MEAN_ANOMALY   = 85.2008

EPHEMERIS_TYPE = 0
CLASSIFICATION_TYPE = U
NORAD_CAT_ID   = 68319
ELEMENT_SET_NO = 999
REV_AT_EPOCH   = 189
BSTAR          = .16419769E-3
MEAN_MOTION_DOT = .8543E-4
MEAN_MOTION_DDOT = 0

